[{"OBJECT_NAME":"STARLINK-35002","OBJECT_ID":"2025-184U","EPOCH":"2026-03-09T17:44:49.746624","MEAN_MOTION":15.05659354,"ECCENTRICITY":0.00013852,"INCLINATION":97.6007,"RA_OF_ASC_NODE":122.6359,"ARG_OF_PERICENTER":154.5242,"MEAN_ANOMALY":205.6053,"EPHEMERIS_TYPE":0,"CLASSIFICATION_TYPE":"U","NORAD_CAT_ID":65291,"ELEMENT_SET_NO":999,"REV_AT_EPOCH":3130,"BSTAR":0.00050234034,"MEAN_MOTION_DOT":7.197e-5,"MEAN_MOTION_DDOT":0},{"OBJECT_NAME":"IMS-1","OBJECT_ID":"2008-021D","EPOCH":"2026-03-09T22:27:26.707392","MEAN_MOTION":15.03517095,"ECCENTRICITY":0.00068607,"INCLINATION":97.9418,"RA_OF_ASC_NODE":52.6663,"ARG_OF_PERICENTER":75.5168,"MEAN_ANOMALY":284.6817,"EPHEMERIS_TYPE":0,"CLASSIFICATION_TYPE":"U","NORAD_CAT_ID":32786,"ELEMENT_SET_NO":999,"REV_AT_EPOCH":96828,"BSTAR":0.00046947389,"MEAN_MOTION_DOT":6.344e-5,"MEAN_MOTION_DDOT":0}]
